NORAD_CAT_ID,OBJECT_NAME,OBJECT_TYPE,EPOCH,MEAN_MOTION,ECCENTRICITY,INCLINATION,RA_OF_ASC_NODE,ARG_OF_PERICENTER,MEAN_ANOMALY,BSTAR,MEAN_MOTION_DOT,MEAN_MOTION_DDOT,TLE_LINE0,TLE_LINE1,TLE_LINE2,SEMIMAJOR_AXIS,PERIOD,APOGEE,PERIGEE,DECAYED
52684.0,STARLINK-4014,PAYLOAD,2024-05-07 16:08:55,15.08829072,0.0001072,53.2168,276.4328,81.9989,278.1125,-0.00018961,-3.303e-05,0.0,0 STARLINK-4014,1 52684U 22053AE  24128.67286589 -.00003303  00000-0 -18961-3 0  9994,2 52684  53.2168 276.4328 0001072  81.9989 278.1125 15.08829072109837,6917.914,95.438,540.52,539.037,0.0
52684.0,STARLINK-4014,PAYLOAD,2024-05-08 14:24:19,15.088439,0.0001092,53.2178,272.2691,93.3641,266.7476,0.00057643,8.899e-05,0.0,0 STARLINK-4014,1 52684U 22053AE  24129.60022928  .00008899  00000-0  57643-3 0  9996,2 52684  53.2178 272.2691 0001092  93.3641 266.7476 15.08843900109972,6917.868,95.437,540.489,538.978,0.0
52684.0,STARLINK-4014,PAYLOAD,2024-05-08 15:59:42,15.08845069,0.000104,53.2174,271.972,89.7116,270.3996,0.00066379,0.00010294,0.0,0 STARLINK-4014,1 52684U 22053AE  24129.66646915  .00010294  00000-0  66379-3 0  9998,2 52684  53.2174 271.9720 0001040  89.7116 270.3996 15.08845069109602,6917.865,95.437,540.449,539.01,0.0
52684.0,STARLINK-4014,PAYLOAD,2024-05-09 12:39:43,15.08849817,0.0001088,53.2164,268.1055,90.1596,269.952,0.00047662,7.308e-05,0.0,0 STARLINK-4014,1 52684U 22053AE  24130.52758818  .00007308  00000-0  47662-3 0  9997,2 52684  53.2164 268.1055 0001088  90.1596 269.9520 15.08849817109736,6917.85,95.437,540.468,538.963,0.0
52684.0,STARLINK-4014,PAYLOAD,2024-05-09 14:15:06,15.08844908,9.46e-05,53.217,267.8078,83.1028,277.0071,0.00025181,3.723e-05,0.0,0 STARLINK-4014,1 52684U 22053AE  24130.59382860  .00003723  00000-0  25181-3 0  9993,2 52684  53.2170 267.8078 0000946  83.1028 277.0071 15.08844908110120,6917.865,95.437,540.385,539.076,0.0
52684.0,STARLINK-4014,PAYLOAD,2024-05-09 15:50:29,15.0884331,0.0001017,53.2177,267.5082,102.3503,257.7603,0.00027752,4.132e-05,0.0,0 STARLINK-4014,1 52684U 22053AE  24130.66006906  .00004132  00000-0  27752-3 0  9996,2 52684  53.2177 267.5082 0001017 102.3503 257.7603 15.08843310110134,6917.87,95.437,540.439,539.032,0.0
52684.0,STARLINK-4014,PAYLOAD,2024-05-10 12:30:30,15.08842841,0.0001019,53.2182,263.6437,95.1432,264.9677,0.00017511,2.5e-05,0.0,0 STARLINK-4014,1 52684U 22053AE  24131.52118875  .00002500  00000-0  17511-3 0  9990,2 52684  53.2182 263.6437 0001019  95.1432 264.9677 15.08842841110266,6917.872,95.437,540.442,539.032,0.0
52684.0,STARLINK-4014,PAYLOAD,2024-05-10 18:52:02,15.08849882,8.77e-05,53.2176,262.4578,89.1764,270.9328,0.00020749,3.017e-05,0.0,0 STARLINK-4014,1 52684U 22053AE  24131.78614533  .00003017  00000-0  20749-3 0  9991,2 52684  53.2176 262.4578 0000877  89.1764 270.9328 15.08849882109927,6917.85,95.437,540.322,539.108,0.0
52684.0,STARLINK-4014,PAYLOAD,2024-05-11 09:10:29,15.08898832,0.0001594,53.2182,259.7823,94.6713,265.4461,0.0011627,0.00018295,0.0,0 STARLINK-4014,1 52684U 22053AE  24132.38228369  .00018295  00000-0  11627-2 0  9994,2 52684  53.2182 259.7823 0001594  94.6713 265.4461 15.08898832110016,6917.701,95.434,540.668,538.463,0.0
52684.0,STARLINK-4014,PAYLOAD,2024-05-11 18:42:49,15.08834351,0.0001685,53.218,258.0014,69.2998,290.8175,-0.00052581,-8.645e-05,0.0,0 STARLINK-4014,1 52684U 22053AE  24132.77973542 -.00008645  00000-0 -52581-3 0  9992,2 52684  53.2180 258.0014 0001685  69.2998 290.8175 15.08834351110078,6917.898,95.438,540.928,538.597,0.0
52684.0,STARLINK-4014,PAYLOAD,2024-05-12 01:04:23,15.08775449,0.0001689,53.2174,256.8081,84.1167,276.0017,-0.0017193,-0.00027499,0.0,0 STARLINK-4014,1 52684U 22053AE  24133.04471891 -.00027499  00000-0 -17193-2 0  9990,2 52684  53.2174 256.8081 0001689  84.1167 276.0017 15.08775449110117,6918.078,95.442,541.111,538.774,0.0
52684.0,STARLINK-4014,PAYLOAD,2024-05-12 12:12:06,15.08761823,5.06e-05,53.216,254.7235,40.7765,319.3265,-0.0017276,-0.00027618,0.0,0 STARLINK-4014,1 52684U 22053AE  24133.50840932 -.00027618  00000-0 -17276-2 0  9992,2 52684  53.2160 254.7235 0000506  40.7765 319.3265 15.08761823110183,6918.119,95.442,540.334,539.634,0.0
52684.0,STARLINK-4014,PAYLOAD,2024-05-12 15:22:52,15.08788832,0.0001324,53.2159,254.1335,100.6207,259.4934,-0.00059423,-9.719e-05,0.0,0 STARLINK-4014,1 52684U 22053AE  24133.64089073 -.00009719  00000-0 -59423-3 0  9991,2 52684  53.2159 254.1335 0001324 100.6207 259.4934 15.08788832110582,6918.037,95.441,540.818,538.986,0.0
52684.0,STARLINK-4014,PAYLOAD,2024-05-12 16:58:15,15.0881734,0.000137,53.2165,253.8334,90.5331,269.5818,0.00037626,5.702e-05,0.0,0 STARLINK-4014,1 52684U 22053AE  24133.70712570  .00005702  00000-0  37626-3 0  9990,2 52684  53.2165 253.8334 0001370  90.5331 269.5818 15.08817340110210,6917.95,95.439,540.762,538.867,0.0
52684.0,STARLINK-4014,PAYLOAD,2024-05-13 12:02:53,15.08843328,0.0001179,53.2156,250.2631,85.3887,274.724,0.0015173,0.00023944,0.0,0 STARLINK-4014,1 52684U 22053AE  24134.50201378  .00023944  00000-0  15173-2 0  9998,2 52684  53.2156 250.2631 0001179  85.3887 274.7240 15.08843328110713,6917.87,95.437,540.551,538.92,0.0
52684.0,STARLINK-4014,PAYLOAD,2024-05-14 11:53:39,15.08858267,0.0001173,53.2158,245.8065,92.1927,267.9199,0.00010327,1.357e-05,0.0,0 STARLINK-4014,1 52684U 22053AE  24135.49559924  .00001357  00000-0  10327-3 0  9991,2 52684  53.2158 245.8065 0001173  92.1927 267.9199 15.08858267110480,6917.825,95.436,540.501,538.878,0.0
52684.0,STARLINK-4014,PAYLOAD,2024-05-14 13:29:03,15.08848286,0.0001516,53.2165,245.5083,85.5127,274.6038,0.00047952,7.354e-05,0.0,0 STARLINK-4014,1 52684U 22053AE  24135.56184554  .00007354  00000-0  47952-3 0  9999,2 52684  53.2165 245.5083 0001516  85.5127 274.6038 15.08848286110874,6917.855,95.437,540.769,538.671,0.0
52684.0,STARLINK-4014,PAYLOAD,2024-05-15 00:36:44,15.08868471,0.0001344,53.2153,243.4244,78.5939,281.5204,0.00029998,4.493e-05,0.0,0 STARLINK-4014,1 52684U 22053AE  24136.02550980  .00004493  00000-0  29998-3 0  9992,2 52684  53.2153 243.4244 0001344  78.5939 281.5204 15.08868471110565,6917.793,95.436,540.588,538.729,0.0
52684.0,STARLINK-4014,PAYLOAD,2024-05-15 11:44:26,15.08839408,0.0001681,53.2154,241.344,81.2874,278.8309,-0.00023966,-4.1e-05,0.0,0 STARLINK-4014,1 52684U 22053AE  24136.48920042 -.00004100  00000-0 -23966-3 0  9998,2 52684  53.2154 241.3440 0001681  81.2874 278.8309 15.08839408110635,6917.882,95.438,540.91,538.584,0.0
52684.0,STARLINK-4014,PAYLOAD,2024-05-15 13:19:49,15.08843606,0.0001935,53.2179,241.0437,102.9133,257.2075,-0.00023991,-4.105e-05,0.0,0 STARLINK-4014,1 52684U 22053AE  24136.55543653 -.00004105  00000-0 -23991-3 0  9998,2 52684  53.2179 241.0437 0001935 102.9133 257.2075 15.08843606111026,6917.869,95.437,541.073,538.396,0.0
52684.0,STARLINK-4014,PAYLOAD,2024-05-15 16:30:35,15.08851368,0.0001696,53.2154,240.453,100.6689,259.4494,6.679e-05,7.75e-06,0.0,0 STARLINK-4014,1 52684U 22053AE  24136.68791329  .00000775  00000-0  66790-4 0  9999,2 52684  53.2154 240.4530 0001696 100.6689 259.4494 15.08851368110663,6917.846,95.437,540.884,538.537,0.0
52684.0,STARLINK-4014,PAYLOAD,2024-05-16 13:10:36,15.08853156,0.0001578,53.2162,236.5824,88.7869,271.3304,0.00019422,2.805e-05,0.0,0 STARLINK-4014,1 52684U 22053AE  24137.54903078  .00002805  00000-0  19422-3 0  9996,2 52684  53.2162 236.5824 0001578  88.7869 271.3304 15.08853156111176,6917.84,95.437,540.797,538.614,0.0
52684.0,STARLINK-4014,PAYLOAD,2024-05-17 13:01:24,15.08828649,0.000149,53.2168,232.1241,90.4918,269.6245,1.2709e-05,-8.6e-07,0.0,0 STARLINK-4014,1 52684U 22053AE  24138.54264143 -.00000086  00000-0  12709-4 0  9992,2 52684  53.2168 232.1241 0001490  90.4918 269.6245 15.08828649110942,6917.915,95.438,540.811,538.749,0.0
52684.0,STARLINK-4014,PAYLOAD,2024-05-17 16:12:10,15.0883346,0.000135,53.2166,231.5296,94.2136,265.9011,-0.00010456,-1.951e-05,0.0,0 STARLINK-4014,1 52684U 22053AE  24138.67511720 -.00001951  00000-0 -10456-3 0  9991,2 52684  53.2166 231.5296 0001350  94.2136 265.9011 15.08833460111344,6917.9,95.438,540.699,538.831,0.0
52684.0,STARLINK-4014,PAYLOAD,2024-05-18 12:52:10,15.08855412,0.0001327,53.2167,227.6667,73.4888,286.625,0.00047088,7.217e-05,0.0,0 STARLINK-4014,1 52684U 22053AE  24139.53623390  .00007217  00000-0  47088-3 0  9994,2 52684  53.2167 227.6667 0001327  73.4888 286.6250 15.08855412111098,6917.833,95.437,540.616,538.78,0.0
52684.0,STARLINK-4014,PAYLOAD,2024-05-18 22:24:28,15.08883014,0.000127,53.2161,225.8782,72.1555,287.9575,0.0010541,0.00016548,0.0,0 STARLINK-4014,1 52684U 22053AE  24139.93365914  .00016548  00000-0  10541-2 0  9993,2 52684  53.2161 225.8782 0001270  72.1555 287.9575 15.08883014111536,6917.749,95.435,540.492,538.735,0.0
52684.0,STARLINK-4014,PAYLOAD,2024-05-19 12:42:58,15.08799016,0.0001552,53.2181,223.2057,108.8623,251.2537,-0.0009981,-0.0001612,0.0,0 STARLINK-4014,1 52684U 22053AE  24140.52984312 -.00016120  00000-0 -99810-3 0  9994,2 52684  53.2181 223.2057 0001552 108.8623 251.2537 15.08799016111621,6918.006,95.44,540.944,538.797,0.0
52684.0,STARLINK-4014,PAYLOAD,2024-05-19 15:53:45,15.08801283,0.0001632,53.2175,222.6091,113.0916,247.0248,-0.00016418,-2.897e-05,0.0,0 STARLINK-4014,1 52684U 22053AE  24140.66232738 -.00002897  00000-0 -16418-3 0  9996,2 52684  53.2175 222.6091 0001632 113.0916 247.0248 15.08801283111269,6917.999,95.44,540.993,538.735,0.0
52684.0,STARLINK-4014,PAYLOAD,2024-05-20 12:33:47,15.08844826,0.0001189,53.2166,218.7444,100.9071,259.2055,0.0018796,0.00029756,0.0,0 STARLINK-4014,1 52684U 22053AE  24141.52346244  .00029756  00000-0  18796-2 0  9991,2 52684  53.2166 218.7444 0001189 100.9071 259.2055 15.08844826111396,6917.866,95.437,540.553,538.908,0.0
52684.0,STARLINK-4014,PAYLOAD,2024-05-20 14:09:10,15.08846067,0.0001136,53.2164,218.4472,95.2945,264.8177,0.0017798,0.00028156,0.0,0 STARLINK-4014,1 52684U 22053AE  24141.58970270  .00028156  00000-0  17798-2 0  9993,2 52684  53.2164 218.4472 0001136  95.2945 264.8177 15.08846067111789,6917.862,95.437,540.513,538.941,0.0
